start=new Date('2021-12-24T00:00:00.000Z').valueOf();
sats=[{"SITE":"AFETR","DECAY_DATE":null,"CLASSIFICATION_TYPE":"U","ECCENTRICITY":"0.00023590","MEAN_MOTION_DOT":"-0.00000560","TLE_LINE2":"2 46049  53.0535 175.6757 0002359  83.9900 276.1358 15.06389423 77403","EPOCH":"2021-12-23T20:52:54.778944","COUNTRY_CODE":"US","RA_OF_ASC_NODE":"175.6757","REF_FRAME":"TEME","MEAN_ANOMALY":"276.1358","SEMIMAJOR_AXIS":"6925.381","MEAN_MOTION":"15.06389423","FILE":"3249421","ARG_OF_PERICENTER":"83.9900","PERIAPSIS":"545.612","INCLINATION":"53.0535","MEAN_ELEMENT_THEORY":"SGP4","LAUNCH_DATE":"2020-08-07","GP_ID":"192323439","OBJECT_ID":"2020-055Y","OBJECT_TYPE":"PAYLOAD","PERIOD":"95.593","EPHEMERIS_TYPE":"0","TIME_SYSTEM":"UTC","REV_AT_EPOCH":"7740","ELEMENT_SET_NO":"999","RCS_SIZE":"LARGE","APOAPSIS":"548.880","TLE_LINE1":"1 46049U 20055Y   21357.87007846 -.00000560  00000-0 -18662-4 0  9993","CENTER_NAME":"EARTH","MEAN_MOTION_DDOT":"0.0000000000000","NORAD_CAT_ID":"46049","OBJECT_NAME":"STARLINK-1530","BSTAR":"-0.00001866200000"},{"DECAY_DATE":null,"CLASSIFICATION_TYPE":"U","ECCENTRICITY":"0.00039450","MEAN_MOTION_DOT":"0.00129706","TLE_LINE2":"2 46050  53.0515 143.0180 0003945 304.4786  55.5867 15.91106698 77855","SITE":"AFETR","RA_OF_ASC_NODE":"143.0180","REF_FRAME":"TEME","SEMIMAJOR_AXIS":"6677.322","MEAN_ANOMALY":"55.5867","MEAN_MOTION":"15.91106698","FILE":"3249421","ARG_OF_PERICENTER":"304.4786","EPOCH":"2021-12-23T19:23:24.273312","COUNTRY_CODE":"US","PERIOD":"90.503","EPHEMERIS_TYPE":"0","TIME_SYSTEM":"UTC","REV_AT_EPOCH":"7785","ELEMENT_SET_NO":"999","PERIAPSIS":"296.553","MEAN_ELEMENT_THEORY":"SGP4","INCLINATION":"53.0515","LAUNCH_DATE":"2020-08-07","GP_ID":"192321689","OBJECT_TYPE":"PAYLOAD","OBJECT_ID":"2020-055Z","OBJECT_NAME":"STARLINK-1535","BSTAR":"0.00040981000000","RCS_SIZE":"LARGE","APOAPSIS":"301.821","TLE_LINE1":"1 46050U 20055Z   21357.80791983  .00129706  17315-4  40981-3 0  9991","CENTER_NAME":"EARTH","MEAN_MOTION_DDOT":"0.0000173150000","NORAD_CAT_ID":"46050"},{"NORAD_CAT_ID":"46051","MEAN_MOTION_DDOT":"0.0000000000000","CENTER_NAME":"EARTH","TLE_LINE1":"1 46051U 20055AA  21357.90692625  .00001132  00000-0  94943-4 0  9995","RCS_SIZE":"LARGE","APOAPSIS":"549.108","BSTAR":"0.00009494300000","OBJECT_NAME":"STARLINK-1540","OBJECT_ID":"2020-055AA","OBJECT_TYPE":"PAYLOAD","GP_ID":"192321940","LAUNCH_DATE":"2020-08-07","MEAN_ELEMENT_THEORY":"SGP4","INCLINATION":"53.0530","PERIAPSIS":"545.334","ELEMENT_SET_NO":"999","REV_AT_EPOCH":"7741","TIME_SYSTEM":"UTC","EPHEMERIS_TYPE":"0","PERIOD":"95.592","COUNTRY_CODE":"US","EPOCH":"2021-12-23T21:45:58.428000","ARG_OF_PERICENTER":"89.9018","FILE":"3249421","MEAN_MOTION":"15.06397478","SEMIMAJOR_AXIS":"6925.356","MEAN_ANOMALY":"270.2283","RA_OF_ASC_NODE":"175.5078","REF_FRAME":"TEME","SITE":"AFETR","TLE_LINE2":"2 46051  53.0530 175.5078 0002725  89.9018 270.2283 15.06397478 77411","MEAN_MOTION_DOT":"0.00001132","ECCENTRICITY":"0.00027250","CLASSIFICATION_TYPE":"U","DECAY_DATE":null},{"MEAN_MOTION":"15.06392984","FILE":"3249421","ARG_OF_PERICENTER":"92.8555","RA_OF_ASC_NODE":"175.5684","REF_FRAME":"TEME","SEMIMAJOR_AXIS":"6925.370","MEAN_ANOMALY":"267.2710","COUNTRY_CODE":"US","EPOCH":"2021-12-23T21:24:45.509760","TLE_LINE2":"2 46052  53.0524 175.5684 0002410  92.8555 267.2710 15.06392984 77371","DECAY_DATE":null,"CLASSIFICATION_TYPE":"U","ECCENTRICITY":"0.00024100","MEAN_MOTION_DOT":"-0.00000695","SITE":"AFETR","OBJECT_NAME":"STARLINK-1541","BSTAR":"-0.00002774400000","CENTER_NAME":"EARTH","MEAN_MOTION_DDOT":"0.0000000000000","NORAD_CAT_ID":"46052","APOAPSIS":"548.904","RCS_SIZE":"LARGE","TLE_LINE1":"1 46052U 20055AB  21357.89219340 -.00000695  00000-0 -27744-4 0  9993","ELEMENT_SET_NO":"999","PERIOD":"95.593","EPHEMERIS_TYPE":"0","TIME_SYSTEM":"UTC","REV_AT_EPOCH":"7737","LAUNCH_DATE":"2020-08-07","GP_ID":"192323186","OBJECT_ID":"2020-055AB","OBJECT_TYPE":"PAYLOAD","PERIAPSIS":"545.566","MEAN_ELEMENT_THEORY":"SGP4","INCLINATION":"53.0524"},{"SITE":"AFETR","DECAY_DATE":null,"CLASSIFICATION_TYPE":"U","ECCENTRICITY":"0.00023320","MEAN_MOTION_DOT":"0.00001082","TLE_LINE2":"2 46053  53.0523 175.5483 0002332  88.9901 271.1355 15.06397574 77405","EPOCH":"2021-12-23T21:30:02.598624","COUNTRY_CODE":"US","RA_OF_ASC_NODE":"175.5483","REF_FRAME":"TEME","SEMIMAJOR_AXIS":"6925.356","MEAN_ANOMALY":"271.1355","MEAN_MOTION":"15.06397574","FILE":"3249421","ARG_OF_PERICENTER":"88.9901","PERIAPSIS":"545.606","INCLINATION":"53.0523","MEAN_ELEMENT_THEORY":"SGP4","LAUNCH_DATE":"2020-08-07","GP_ID":"192322939","OBJECT_TYPE":"PAYLOAD","OBJECT_ID":"2020-055AC","PERIOD":"95.592","EPHEMERIS_TYPE":"0","TIME_SYSTEM":"UTC","REV_AT_EPOCH":"7740","ELEMENT_SET_NO":"999","RCS_SIZE":"LARGE","APOAPSIS":"548.836","TLE_LINE1":"1 46053U 20055AC  21357.89586341  .00001082  00000-0  91550-4 0  9997","CENTER_NAME":"EARTH","MEAN_MOTION_DDOT":"0.0000000000000","NORAD_CAT_ID":"46053","OBJECT_NAME":"STARLINK-1543","BSTAR":"0.00009155000000"},{"SITE":"AFETR","TLE_LINE2":"2 46054  53.0539 175.5142 0002562  84.5683 275.5598 15.06406108 77400","MEAN_MOTION_DOT":"0.00001671","ECCENTRICITY":"0.00025620","CLASSIFICATION_TYPE":"U","DECAY_DATE":null,"COUNTRY_CODE":"US","EPOCH":"2021-12-23T21:40:39.877248","ARG_OF_PERICENTER":"84.5683","FILE":"3249421","MEAN_MOTION":"15.06406108","SEMIMAJOR_AXIS":"6925.330","MEAN_ANOMALY":"275.5598","REF_FRAME":"TEME","RA_OF_ASC_NODE":"175.5142","OBJECT_ID":"2020-055AD","OBJECT_TYPE":"PAYLOAD","GP_ID":"192322190","LAUNCH_DATE":"2020-08-07","INCLINATION":"53.0539","MEAN_ELEMENT_THEORY":"SGP4","PERIAPSIS":"545.421","ELEMENT_SET_NO":"999","REV_AT_EPOCH":"7740","TIME_SYSTEM":"UTC","EPHEMERIS_TYPE":"0","PERIOD":"95.592","NORAD_CAT_ID":"46054","MEAN_MOTION_DDOT":"0.0000000000000","CENTER_NAME":"EARTH","TLE_LINE1":"1 46054U 20055AD  21357.90323932  .00001671  00000-0  13104-3 0  9997","APOAPSIS":"548.969","RCS_SIZE":"LARGE","BSTAR":"0.00013104000000","OBJECT_NAME":"STARLINK-1548"},{"SEMIMAJOR_AXIS":"6925.349","MEAN_ANOMALY":"271.5283","RA_OF_ASC_NODE":"175.5958","REF_FRAME":"TEME","ARG_OF_PERICENTER":"88.5996","FILE":"3249421","MEAN_MOTION":"15.06399939","EPOCH":"2021-12-23T21:19:25.672512","COUNTRY_CODE":"US","MEAN_MOTION_DOT":"0.00000911","ECCENTRICITY":"0.00025260","CLASSIFICATION_TYPE":"U","DECAY_DATE":null,"TLE_LINE2":"2 46055  53.0540 175.5958 0002526  88.5996 271.5283 15.06399939 77409","SITE":"AFETR","BSTAR":"0.00008005400000","OBJECT_NAME":"STARLINK-1554","TLE_LINE1":"1 46055U 20055AE  21357.88849158  .00000911  00000-0  80054-4 0  9993","RCS_SIZE":"LARGE","APOAPSIS":"548.963","NORAD_CAT_ID":"46055","MEAN_MOTION_DDOT":"0.0000000000000","CENTER_NAME":"EARTH","REV_AT_EPOCH":"7740","TIME_SYSTEM":"UTC","EPHEMERIS_TYPE":"0","PERIOD":"95.592","ELEMENT_SET_NO":"999","MEAN_ELEMENT_THEORY":"SGP4","INCLINATION":"53.0540","PERIAPSIS":"545.464","OBJECT_TYPE":"PAYLOAD","OBJECT_ID":"2020-055AE","GP_ID":"192322441","LAUNCH_DATE":"2020-08-07"},{"COUNTRY_CODE":"US","EPOCH":"2021-12-23T20:15:44.410464","ARG_OF_PERICENTER":"88.9977","MEAN_MOTION":"15.06405344","FILE":"3249421","SEMIMAJOR_AXIS":"6925.332","MEAN_ANOMALY":"271.1314","RA_OF_ASC_NODE":"175.7834","REF_FRAME":"TEME","SITE":"AFETR","TLE_LINE2":"2 46056  53.0527 175.7834 0002634  88.9977 271.1314 15.06405344 77402","ECCENTRICITY":"0.00026340","MEAN_MOTION_DOT":"0.00002803","DECAY_DATE":null,"CLASSIFICATION_TYPE":"U","MEAN_MOTION_DDOT":"0.0000000000000","NORAD_CAT_ID":"46056","CENTER_NAME":"EARTH","TLE_LINE1":"1 46056U 20055AF  21357.84426401  .00002803  00000-0  20696-3 0  9999","RCS_SIZE":"LARGE","APOAPSIS":"549.021","BSTAR":"0.00020696000000","OBJECT_NAME":"STARLINK-1561","GP_ID":"192322686","OBJECT_TYPE":"PAYLOAD","OBJECT_ID":"2020-055AF","LAUNCH_DATE":"2020-08-07","MEAN_ELEMENT_THEORY":"SGP4","INCLINATION":"53.0527","PERIAPSIS":"545.373","ELEMENT_SET_NO":"999","TIME_SYSTEM":"UTC","REV_AT_EPOCH":"7740","PERIOD":"95.592","EPHEMERIS_TYPE":"0"},{"SITE":"AFETR","TLE_LINE2":"2 46058  53.0536 175.7258 0002503  92.3987 267.7288 15.06396528 77391","DECAY_DATE":null,"CLASSIFICATION_TYPE":"U","ECCENTRICITY":"0.00025030","MEAN_MOTION_DOT":"-0.00000723","COUNTRY_CODE":"US","EPOCH":"2021-12-23T20:31:40.512864","MEAN_MOTION":"15.06396528","FILE":"3249421","ARG_OF_PERICENTER":"92.3987","RA_OF_ASC_NODE":"175.7258","REF_FRAME":"TEME","MEAN_ANOMALY":"267.7288","SEMIMAJOR_AXIS":"6925.359","LAUNCH_DATE":"2020-08-07","GP_ID":"192323440","OBJECT_ID":"2020-055AH","OBJECT_TYPE":"PAYLOAD","PERIAPSIS":"545.491","MEAN_ELEMENT_THEORY":"SGP4","INCLINATION":"53.0536","ELEMENT_SET_NO":"999","PERIOD":"95.592","EPHEMERIS_TYPE":"0","TIME_SYSTEM":"UTC","REV_AT_EPOCH":"7739","CENTER_NAME":"EARTH","MEAN_MOTION_DDOT":"0.0000000000000","NORAD_CAT_ID":"46058","APOAPSIS":"548.958","RCS_SIZE":"LARGE","TLE_LINE1":"1 46058U 20055AH  21357.85533001 -.00000723  00000-0 -29597-4 0  9998","OBJECT_NAME":"STARLINK-1564","BSTAR":"-0.00002959700000"},{"COUNTRY_CODE":"US","EPOCH":"2021-12-23T20:42:18.683136","FILE":"3249421","MEAN_MOTION":"15.06406766","ARG_OF_PERICENTER":"88.3010","REF_FRAME":"TEME","RA_OF_ASC_NODE":"175.6990","MEAN_ANOMALY":"271.8287","SEMIMAJOR_AXIS":"6925.328","SITE":"AFETR","TLE_LINE2":"2 46059  53.0515 175.6990 0002691  88.3010 271.8287 15.06406766 77358","CLASSIFICATION_TYPE":"U","DECAY_DATE":null,"MEAN_MOTION_DOT":"0.00002480","ECCENTRICITY":"0.00026910","CENTER_NAME":"EARTH","NORAD_CAT_ID":"46059","MEAN_MOTION_DDOT":"0.0000000000000","RCS_SIZE":"LARGE","APOAPSIS":"549.056","TLE_LINE1":"1 46059U 20055AJ  21357.86271624  .00002480  00000-0  18534-3 0  9998","OBJECT_NAME":"STARLINK-1570","BSTAR":"0.00018534000000","LAUNCH_DATE":"2020-08-07","OBJECT_ID":"2020-055AJ","OBJECT_TYPE":"PAYLOAD","GP_ID":"192321690","PERIAPSIS":"545.329","INCLINATION":"53.0515","MEAN_ELEMENT_THEORY":"SGP4","ELEMENT_SET_NO":"999","EPHEMERIS_TYPE":"0","PERIOD":"95.592","REV_AT_EPOCH":"7735","TIME_SYSTEM":"UTC"}];
